[{"OBJECT_NAME":"SAUDICOMSAT 6","OBJECT_ID":"2007-012E","EPOCH":"2026-03-09T21:15:43.629696","MEAN_MOTION":14.62432218,"ECCENTRICITY":0.00706343,"INCLINATION":98.399,"RA_OF_ASC_NODE":34.6274,"ARG_OF_PERICENTER":276.1767,"MEAN_ANOMALY":83.139,"EPHEMERIS_TYPE":0,"CLASSIFICATION_TYPE":"U","NORAD_CAT_ID":31121,"ELEMENT_SET_NO":999,"REV_AT_EPOCH":567,"BSTAR":0.00019628889,"MEAN_MOTION_DOT":9.75e-6,"MEAN_MOTION_DDOT":0},{"OBJECT_NAME":"SL-16 DEB","OBJECT_ID":"1992-093JT","EPOCH":"2026-03-05T19:24:28.079712","MEAN_MOTION":14.31345277,"ECCENTRICITY":0.01130291,"INCLINATION":70.9778,"RA_OF_ASC_NODE":213.4985,"ARG_OF_PERICENTER":113.2242,"MEAN_ANOMALY":318.2003,"EPHEMERIS_TYPE":0,"CLASSIFICATION_TYPE":"U","NORAD_CAT_ID":39302,"ELEMENT_SET_NO":999,"REV_AT_EPOCH":64348,"BSTAR":0.0020587285,"MEAN_MOTION_DOT":5.808e-5,"MEAN_MOTION_DDOT":0}]
